{
  "norad_id": 59771,
  "name": "STARLINK-31786",
  "history": [
    {
      "epoch": "2026-03-28T20:08:07.514304Z",
      "apogee_km": 476.1337042027335,
      "perigee_km": 474.35347006142,
      "latitude_deg": 3.332932723859201e-05,
      "longitude_deg": 169.83814698694286,
      "height_km": 476.24443887010455,
      "semi_major_axis_km": 6853.3805871320765,
      "eccentricity": 0.00012988,
      "inclination_deg": 53.1605,
      "raan_deg": 298.1231,
      "arg_perigee_deg": 96.6294,
      "mean_anomaly_deg": 263.4855,
      "mean_motion_rev_day": 15.30190449
    },
    {
      "epoch": "2026-03-28T21:42:10.794240Z",
      "apogee_km": 476.09491884611816,
      "perigee_km": 474.3993916061145,
      "latitude_deg": -1.7041860535196234e-05,
      "longitude_deg": 145.9570649024953,
      "height_km": 476.1980281749078,
      "semi_major_axis_km": 6853.384155226116,
      "eccentricity": 0.0001237,
      "inclination_deg": 53.1605,
      "raan_deg": 297.8201,
      "arg_perigee_deg": 93.5639,
      "mean_anomaly_deg": 266.5503,
      "mean_motion_rev_day": 15.30189254
    },
    {
      "epoch": "2026-03-29T21:12:58.402656Z",
      "apogee_km": 476.0674993986995,
      "perigee_km": 474.39938903257826,
      "latitude_deg": -7.301480481327308e-06,
      "longitude_deg": 147.74285035163632,
      "height_km": 476.16387783484566,
      "semi_major_axis_km": 6853.370444215639,
      "eccentricity": 0.0001217,
      "inclination_deg": 53.1608,
      "raan_deg": 293.2699,
      "arg_perigee_deg": 92.2126,
      "mean_anomaly_deg": 267.9014,
      "mean_motion_rev_day": 15.30193846
    },
    {
      "epoch": "2026-03-29T21:12:58.403520Z",
      "apogee_km": 476.0672252638824,
      "perigee_km": 474.3996631673954,
      "latitude_deg": -3.6009224584463847e-06,
      "longitude_deg": 147.74284949875826,
      "height_km": 476.16386724947864,
      "semi_major_axis_km": 6853.370444215639,
      "eccentricity": 0.00012166,
      "inclination_deg": 53.1608,
      "raan_deg": 293.2699,
      "arg_perigee_deg": 92.2126,
      "mean_anomaly_deg": 267.9014,
      "mean_motion_rev_day": 15.30193846
    },
    {
      "epoch": "2026-03-30T12:53:30.905664Z",
      "apogee_km": 476.1064765909532,
      "perigee_km": 474.40094177906576,
      "latitude_deg": 7.007141853445009e-05,
      "longitude_deg": -91.07069845394017,
      "height_km": 476.262865899246,
      "semi_major_axis_km": 6853.390709185009,
      "eccentricity": 0.00012443,
      "inclination_deg": 53.1609,
      "raan_deg": 290.2355,
      "arg_perigee_deg": 97.4759,
      "mean_anomaly_deg": 262.6384,
      "mean_motion_rev_day": 15.30187059
    },
    {
      "epoch": "2026-03-30T20:43:46.756704Z",
      "apogee_km": 476.0989938526209,
      "perigee_km": 474.40785123195474,
      "latitude_deg": 5.470561613668478e-05,
      "longitude_deg": 149.52476007969102,
      "height_km": 476.2419919456351,
      "semi_major_axis_km": 6853.3904225422875,
      "eccentricity": 0.00012338,
      "inclination_deg": 53.1607,
      "raan_deg": 288.7189,
      "arg_perigee_deg": 96.1355,
      "mean_anomaly_deg": 263.9787,
      "mean_motion_rev_day": 15.30187155
    }
  ]
}